{
  "type": "FeatureCollection",
  "features": [
    {
      "type": "Feature",
      "properties": {
        "norad_id": 34070,
        "name": "COSMOS 2251 DEB",
        "group": "cosmos-2251-debris",
        "lat": 6.741439147221427,
        "lon": 107.1373673786481,
        "alt_km": 650.4836443754357,
        "timestamp": "2025-12-18T08:58:43.808482+00:00",
        "meta_object_name": "COSMOS 2251 DEB",
        "meta_object_id": "1993-036KH",
        "meta_epoch": "2025-12-17T18:52:48.365760",
        "meta_mean_motion": 14.77197885,
        "meta_eccentricity": 0.00183795,
        "meta_inclination": 74.0004,
        "meta_ra_of_asc_node": 106.3477,
        "meta_arg_of_pericenter": 222.9852,
        "meta_mean_anomaly": 261.3169,
        "meta_ephemeris_type": 0,
        "meta_classification_type": "U",
        "meta_norad_cat_id": 34070,
        "meta_element_set_no": 999,
        "meta_rev_at_epoch": 88685,
        "meta_bstar": 0.0018553449,
        "meta_mean_motion_dot": 0.00013168,
        "meta_mean_motion_ddot": 0,
        "tle_line1": "1 34070U 93036KH  25351.78667090  .00013168  00000+0  18553-2 0  9996",
        "tle_line2": "2 34070  74.0004 106.3477 0018379 222.9852 261.3169 14.77197885886857"
      },
      "geometry": {
        "type": "Point",
        "coordinates": [
          107.1373673786481,
          6.741439147221427
        ]
      }
    },
    {
      "type": "Feature",
      "properties": {
        "norad_id": 34114,
        "name": "COSMOS 2251 DEB",
        "group": "cosmos-2251-debris",
        "lat": 23.04122863059588,
        "lon": -153.8258727194821,
        "alt_km": 725.5216611506457,
        "timestamp": "2025-12-18T08:58:43.808507+00:00",
        "meta_object_name": "COSMOS 2251 DEB",
        "meta_object_id": "1993-036KK",
        "meta_epoch": "2025-12-17T13:03:28.863648",
        "meta_mean_motion": 14.56442282,
        "meta_eccentricity": 0.00476467,
        "meta_inclination": 74.0593,
        "meta_ra_of_asc_node": 34.7285,
        "meta_arg_of_pericenter": 27.5957,
        "meta_mean_anomaly": 97.6086,
        "meta_ephemeris_type": 0,
        "meta_classification_type": "U",
        "meta_norad_cat_id": 34114,
        "meta_element_set_no": 999,
        "meta_rev_at_epoch": 87871,
        "meta_bstar": 0.0011485083,
        "meta_mean_motion_dot": 5.155e-05,
        "meta_mean_motion_ddot": 0,
        "tle_line1": "1 34114U 93036KK  25351.54408407  .00005155  00000+0  11485-2 0  9998",
        "tle_line2": "2 34114  74.0593  34.7285 0047646  27.5957  97.6086 14.56442282878719"
      },
      "geometry": {
        "type": "Point",
        "coordinates": [
          -153.8258727194821,
          23.04122863059588
        ]
      }
    },
    {
      "type": "Feature",
      "properties": {
        "norad_id": 34115,
        "name": "COSMOS 2251 DEB",
        "group": "cosmos-2251-debris",
        "lat": 15.765464585968088,
        "lon": -124.52296010176879,
        "alt_km": 614.8352396572527,
        "timestamp": "2025-12-18T08:58:43.808519+00:00",
        "meta_object_name": "COSMOS 2251 DEB",
        "meta_object_id": "1993-036KL",
        "meta_epoch": "2025-12-17T18:18:00.540864",
        "meta_mean_motion": 14.79556772,
        "meta_eccentricity": 0.00287085,
        "meta_inclination": 74.0065,
        "meta_ra_of_asc_node": 232.038,
        "meta_arg_of_pericenter": 54.0554,
        "meta_mean_anomaly": 306.3278,
        "meta_ephemeris_type": 0,
        "meta_classification_type": "U",
        "meta_norad_cat_id": 34115,
        "meta_element_set_no": 999,
        "meta_rev_at_epoch": 89486,
        "meta_bstar": 0.00070168989,
        "meta_mean_motion_dot": 5.259e-05,
        "meta_mean_motion_ddot": 0,
        "tle_line1": "1 34115U 93036KL  25351.76250626  .00005259  00000+0  70169-3 0  9991",
        "tle_line2": "2 34115  74.0065 232.0380 0028708  54.0554 306.3278 14.79556772894861"
      },
      "geometry": {
        "type": "Point",
        "coordinates": [
          -124.52296010176879,
          15.765464585968088
        ]
      }
    },
    {
      "type": "Feature",
      "properties": {
        "norad_id": 34116,
        "name": "COSMOS 2251 DEB",
        "group": "cosmos-2251-debris",
        "lat": 17.068317397128734,
        "lon": -12.89249142150432,
        "alt_km": 715.3945852511797,
        "timestamp": "2025-12-18T08:58:43.808530+00:00",
        "meta_object_name": "COSMOS 2251 DEB",
        "meta_object_id": "1993-036KM",
        "meta_epoch": "2025-12-17T19:04:18.281856",
        "meta_mean_motion": 14.5300469,
        "meta_eccentricity": 0.00119167,
        "meta_inclination": 74.0394,
        "meta_ra_of_asc_node": 173.2413,
        "meta_arg_of_pericenter": 249.2338,
        "meta_mean_anomaly": 123.1947,
        "meta_ephemeris_type": 0,
        "meta_classification_type": "U",
        "meta_norad_cat_id": 34116,
        "meta_element_set_no": 999,
        "meta_rev_at_epoch": 88560,
        "meta_bstar": 0.00057682839,
        "meta_mean_motion_dot": 2.355e-05,
        "meta_mean_motion_ddot": 0,
        "tle_line1": "1 34116U 93036KM  25351.79465604  .00002355  00000+0  57683-3 0  9999",
        "tle_line2": "2 34116  74.0394 173.2413 0011916 249.2338 123.1947 14.53004690885600"
      },
      "geometry": {
        "type": "Point",
        "coordinates": [
          -12.89249142150432,
          17.068317397128734
        ]
      }
    },
    {
      "type": "Feature",
      "properties": {
        "norad_id": 34117,
        "name": "COSMOS 2251 DEB",
        "group": "cosmos-2251-debris",
        "lat": 73.78262571515859,
        "lon": 53.131500648990766,
        "alt_km": 720.5292888135928,
        "timestamp": "2025-12-18T08:58:43.808540+00:00",
        "meta_object_name": "COSMOS 2251 DEB",
        "meta_object_id": "1993-036KN",
        "meta_epoch": "2025-12-17T00:54:03.842208",
        "meta_mean_motion": 14.40029318,
        "meta_eccentricity": 0.00547146,
        "meta_inclination": 74.0398,
        "meta_ra_of_asc_node": 335.8879,
        "meta_arg_of_pericenter": 50.9803,
        "meta_mean_anomaly": 309.6204,
        "meta_ephemeris_type": 0,
        "meta_classification_type": "U",
        "meta_norad_cat_id": 34117,
        "meta_element_set_no": 999,
        "meta_rev_at_epoch": 88185,
        "meta_bstar": 0.00054594936,
        "meta_mean_motion_dot": 1.725e-05,
        "meta_mean_motion_ddot": 0,
        "tle_line1": "1 34117U 93036KN  25351.03754447  .00001725  00000+0  54595-3 0  9992",
        "tle_line2": "2 34117  74.0398 335.8879 0054714  50.9803 309.6204 14.40029318881854"
      },
      "geometry": {
        "type": "Point",
        "coordinates": [
          53.131500648990766,
          73.78262571515859
        ]
      }
    },
    {
      "type": "Feature",
      "properties": {
        "norad_id": 34118,
        "name": "COSMOS 2251 DEB",
        "group": "cosmos-2251-debris",
        "lat": 6.282020503566012,
        "lon": 56.084913842864864,
        "alt_km": 598.5618615886069,
        "timestamp": "2025-12-18T08:58:43.808550+00:00",
        "meta_object_name": "COSMOS 2251 DEB",
        "meta_object_id": "1993-036KP",
        "meta_epoch": "2025-12-17T19:39:52.939008",
        "meta_mean_motion": 14.94122823,
        "meta_eccentricity": 0.00599831,
        "meta_inclination": 73.9523,
        "meta_ra_of_asc_node": 239.0232,
        "meta_arg_of_pericenter": 68.0253,
        "meta_mean_anomaly": 1.9628,
        "meta_ephemeris_type": 0,
        "meta_classification_type": "U",
        "meta_norad_cat_id": 34118,
        "meta_element_set_no": 999,
        "meta_rev_at_epoch": 89252,
        "meta_bstar": 0.0011124028,
        "meta_mean_motion_dot": 0.0001231,
        "meta_mean_motion_ddot": 0,
        "tle_line1": "1 34118U 93036KP  25351.81936272  .00012310  00000+0  11124-2 0  9999",
        "tle_line2": "2 34118  73.9523 239.0232 0059983  68.0253   1.9628 14.94122823892525"
      },
      "geometry": {
        "type": "Point",
        "coordinates": [
          56.084913842864864,
          6.282020503566012
        ]
      }
    },
    {
      "type": "Feature",
      "properties": {
        "norad_id": 34120,
        "name": "COSMOS 2251 DEB",
        "group": "cosmos-2251-debris",
        "lat": 73.98111099990906,
        "lon": -63.55343006548993,
        "alt_km": 817.2055318258926,
        "timestamp": "2025-12-18T08:58:43.808560+00:00",
        "meta_object_name": "COSMOS 2251 DEB",
        "meta_object_id": "1993-036KR",
        "meta_epoch": "2025-12-17T17:27:27.448128",
        "meta_mean_motion": 13.98689503,
        "meta_eccentricity": 0.01821844,
        "meta_inclination": 73.9906,
        "meta_ra_of_asc_node": 207.5815,
        "meta_arg_of_pericenter": 34.1593,
        "meta_mean_anomaly": 38.9535,
        "meta_ephemeris_type": 0,
        "meta_classification_type": "U",
        "meta_norad_cat_id": 34120,
        "meta_element_set_no": 999,
        "meta_rev_at_epoch": 86050,
        "meta_bstar": 0.00029612034,
        "meta_mean_motion_dot": 4.67e-06,
        "meta_mean_motion_ddot": 0,
        "tle_line1": "1 34120U 93036KR  25351.72740102  .00000467  00000+0  29612-3 0  9999",
        "tle_line2": "2 34120  73.9906 207.5815 0182184  34.1593  38.9535 13.98689503860507"
      },
      "geometry": {
        "type": "Point",
        "coordinates": [
          -63.55343006548993,
          73.98111099990906
        ]
      }
    }
  ]
}